{
  "type": "FeatureCollection",
  "features": [
    {
      "type": "Feature",
      "properties": {
        "name": "Lisbon Loop"
      },
      "geometry": {
        "type": "LineString",
        "coordinates": [
          [-9.2291, 38.7370],
          [-9.2191, 38.7300],
          [-9.2100, 38.7250],
          [-9.2000, 38.7200],
          [-9.1900, 38.7170],
          [-9.1800, 38.7150],
          [-9.1700, 38.7130],
          [-9.1600, 38.7120],
          [-9.1500, 38.7115],
          [-9.1400, 38.7120],
          [-9.1300, 38.7135],
          [-9.1200, 38.7160],
          [-9.1100, 38.7200],
          [-9.1000, 38.7250],
          [-9.0950, 38.7300],
          [-9.0900, 38.7400],
          [-9.0950, 38.7500],
          [-9.1000, 38.7550],
          [-9.1100, 38.7600],
          [-9.1200, 38.7630],
          [-9.1300, 38.7650],
          [-9.1400, 38.7660],
          [-9.1500, 38.7655],
          [-9.1600, 38.7640],
          [-9.1700, 38.7620],
          [-9.1800, 38.7590],
          [-9.1900, 38.7550],
          [-9.2000, 38.7500],
          [-9.2100, 38.7450],
          [-9.2200, 38.7400],
          [-9.2291, 38.7370]
        ]
      }
    }
  ]
}
